$$SOE
2460721.500000000, A.D. 2025-Feb-15 00:00:00.0000, 2.190217246063473E+08, 2.181657704935848E+08, -5.025781329577327E+06,
2460728.500000000, A.D. 2025-Feb-22 00:00:00.0000, 2.110167658448614E+08, 2.286593275981627E+08, -5.272146946843296E+06,
2460735.500000000, A.D. 2025-Mar-01 00:00:00.0000, 2.026718633182299E+08, 2.387847192251281E+08, -5.510022236558959E+06,
2460742.500000000, A.D. 2025-Mar-08 00:00:00.0000, 1.940068389652448E+08, 2.485331582446148E+08, -5.739197688643232E+06,
2460749.500000000, A.D. 2025-Mar-15 00:00:00.0000, 1.850414369467985E+08, 2.578970173389964E+08, -5.959490767202213E+06,
2460756.500000000, A.D. 2025-Mar-22 00:00:00.0000, 1.757952542088769E+08, 2.668697789939080E+08, -6.170744509335667E+06,
2460763.500000000, A.D. 2025-Mar-29 00:00:00.0000, 1.662876797830339E+08, 2.754459807780996E+08, -6.372826372943580E+06,
2460770.500000000, A.D. 2025-Apr-05 00:00:00.0000, 1.565378429096034E+08, 2.836211598701894E+08, -6.565627127671748E+06,
2460777.500000000, A.D. 2025-Apr-12 00:00:00.0000, 1.465645677390462E+08, 2.913917976653059E+08, -6.749059621143907E+06,
2460784.500000000, A.D. 2025-Apr-19 00:00:00.0000, 1.363863340562797E+08, 2.987552642264178E+08, -6.923057490413502E+06,
2460791.500000000, A.D. 2025-Apr-26 00:00:00.0000, 1.260212438976857E+08, 3.057097629378896E+08, -7.087573873459816E+06,
2460798.500000000, A.D. 2025-May-03 00:00:00.0000, 1.154869937495749E+08, 3.122542758578930E+08, -7.242580141024306E+06,
2460805.500000000, A.D. 2025-May-10 00:00:00.0000, 1.048008519196404E+08, 3.183885101777991E+08, -7.388064660282969E+06,
2460812.500000000, A.D. 2025-May-17 00:00:00.0000, 9.397964067827342E+07, 3.241128460749625E+08, -7.524031604910299E+06,
2460819.500000000, A.D. 2025-May-24 00:00:00.0000, 8.303972290864331E+07, 3.294282861665839E+08, -7.650499838155776E+06,
2460826.500000000, A.D. 2025-May-31 00:00:00.0000, 7.199699325961997E+07, 3.343364070804359E+08, -7.767501886722058E+06,
2460833.500000000, A.D. 2025-Jun-07 00:00:00.0000, 6.086687299580777E+07, 3.388393145013255E+08, -7.875082874356836E+06,
2460840.500000000, A.D. 2025-Jun-14 00:00:00.0000, 4.966430579694936E+07, 3.429396011262896E+08, -7.973299255590945E+06,
2460847.500000000, A.D. 2025-Jun-21 00:00:00.0000, 3.840375535277321E+07, 3.466403043140837E+08, -8.062217728750095E+06,
2460854.500000000, A.D. 2025-Jun-28 00:00:00.0000, 2.709920753720794E+07, 3.499448652334939E+08, -8.141914471729040E+06,
2460861.500000000, A.D. 2025-Jul-05 00:00:00.0000, 1.576417533504218E+07, 3.528570916731195E+08, -8.212474386269912E+06,
2460868.500000000, A.D. 2025-Jul-12 00:00:00.0000, 4.411705040525744E+06, 3.553811236813592E+08, -8.273990306663692E+06,
2460875.500000000, A.D. 2025-Jul-19 00:00:00.0000, -6.945616349407377E+06, 3.575214014185023E+08, -8.326562235965863E+06,
2460882.500000000, A.D. 2025-Jul-26 00:00:00.0000, -1.829565257932676E+07, 3.592826351073307E+08, -8.370296632131979E+06,
2460889.500000000, A.D. 2025-Aug-02 00:00:00.0000, -2.962670856978759E+07, 3.606697770347450E+08, -8.405305746579975E+06,
2460896.500000000, A.D. 2025-Aug-09 00:00:00.0000, -4.092752001476086E+07, 3.616879955113729E+08, -8.431707016563013E+06,
2460903.500000000, A.D. 2025-Aug-16 00:00:00.0000, -5.218724224033073E+07, 3.623426506408896E+08, -8.449622521434322E+06,
2460910.500000000, A.D. 2025-Aug-23 00:00:00.0000, -6.339543818792218E+07, 3.626392718262345E+08, -8.459178526038274E+06,
2460917.500000000, A.D. 2025-Aug-30 00:00:00.0000, -7.454206533106235E+07, 3.625835376360015E+08, -8.460505080863386E+06,
2460924.500000000, A.D. 2025-Sep-06 00:00:00.0000, -8.561746306292973E+07, 3.621812589414399E+08, -8.453735465375915E+06,
2460931.500000000, A.D. 2025-Sep-13 00:00:00.0000, -9.661234232356468E+07, 3.614383627454605E+08, -8.439005522073165E+06,
2460938.500000000, A.D. 2025-Sep-20 00:00:00.0000, -1.075177742817931E+08, 3.603608749544768E+08, -8.416453312182978E+06,
2460945.500000000, A.D. 2025-Sep-27 00:00:00.0000, -1.183251770964426E+08, 3.589549051096340E+08, -8.386218932888731E+06,
2460952.500000000, A.D. 2025-Oct-04 00:00:00.0000, -1.290263028429545E+08, 3.572266335277658E+08, -8.348444264859140E+06,
2460959.500000000, A.D. 2025-Oct-11 00:00:00.0000, -1.396132250399468E+08, 3.551822998219938E+08, -8.303272690460488E+06,
2460966.500000000, A.D. 2025-Oct-18 00:00:00.0000, -1.500783265447653E+08, 3.528281924484984E+08, -8.250848829283848E+06,
2460973.500000000, A.D. 2025-Oct-25 00:00:00.0000, -1.604142877201106E+08, 3.501706392173676E+08, -8.191318301658779E+06,
2460980.500000000, A.D. 2025-Nov-01 00:00:00.0000, -1.706140748641437E+08, 3.472159987118385E+08, -8.124827521350741E+06,
2460987.500000000, A.D. 2025-Nov-08 00:00:00.0000, -1.806709288945476E+08, 3.439706525143788E+08, -8.051523521878108E+06,
2460994.500000000, A.D. 2025-Nov-15 00:00:00.0000, -1.905783541589718E+08, 3.404409981130271E+08, -7.971553833390146E+06,
2461001.500000000, A.D. 2025-Nov-22 00:00:00.0000, -2.003301069858265E+08, 3.366334426433718E+08, -7.885066427652776E+06,
2461008.500000000, A.D. 2025-Nov-29 00:00:00.0000, -2.099201841427662E+08, 3.325543985411429E+08, -7.792209623123482E+06,
2461015.500000000, A.D. 2025-Dec-06 00:00:00.0000, -2.193428134913922E+08, 3.282102809160971E+08, -7.693131751592055E+06,
2461022.500000000, A.D. 2025-Dec-13 00:00:00.0000, -2.285924464082256E+08, 3.236075032260073E+08, -7.587980900605470E+06,
2461029.500000000, A.D. 2025-Dec-20 00:00:00.0000, -2.376637484805531E+08, 3.187524722205261E+08, -7.476904966677800E+06,
2461036.500000000, A.D. 2025-Dec-27 00:00:00.0000, -2.465515895568632E+08, 3.136515847014283E+08, -7.360051708142310E+06,
2461043.500000000, A.D. 2026-Jan-03 00:00:00.0000, -2.552510346122406E+08, 3.083112254466172E+08, -7.237568713719353E+06,
2461050.500000000, A.D. 2026-Jan-10 00:00:00.0000, -2.637573353155999E+08, 3.027377655821503E+08, -7.109603351447627E+06,
2461057.500000000, A.D. 2026-Jan-17 00:00:00.0000, -2.720659220619613E+08, 2.969375612756494E+08, -6.976302725773409E+06,
2461064.500000000, A.D. 2026-Jan-24 00:00:00.0000, -2.801723963866390E+08, 2.909169527417178E+08, -6.837813647165492E+06,
2461071.500000000, A.D. 2026-Jan-31 00:00:00.0000, -2.880725237314434E+08, 2.846822635223370E+08, -6.694282616145536E+06,
2461078.500000000, A.D. 2026-Feb-07 00:00:00.0000, -2.957622264940295E+08, 2.782397999570047E+08, -6.545855831219316E+06,
2461085.500000000, A.D. 2026-Feb-14 00:00:00.0000, -3.032375770997770E+08, 2.715958508008435E+08, -6.392679244366705E+06,
2461092.500000000, A.D. 2026-Feb-21 00:00:00.0000, -3.104947907018116E+08, 2.647566875427384E+08, -6.234898651739553E+06,
2461099.500000000, A.D. 2026-Feb-28 00:00:00.0000, -3.175302185892447E+08, 2.577285665545488E+08, -6.072659625294641E+06,
2461106.500000000, A.D. 2026-Mar-07 00:00:00.0000, -3.243403443589702E+08, 2.505177311038435E+08, -5.906107255775020E+06,
2461113.500000000, A.D. 2026-Mar-14 00:00:00.0000, -3.309217800679441E+08, 2.431304108821980E+08, -5.735386151791364E+06,
2461120.500000000, A.D. 2026-Mar-21 00:00:00.0000, -3.372712605739635E+08, 2.355728219288139E+08, -5.560640620697573E+06,
2461127.500000000, A.D. 2026-Mar-28 00:00:00.0000, -3.433856380703282E+08, 2.278511679628412E+08, -5.382014762554377E+06,
2461134.500000000, A.D. 2026-Apr-04 00:00:00.0000, -3.492618774134809E+08, 2.199716421481243E+08, -5.199652500625536E+06,
2461141.500000000, A.D. 2026-Apr-11 00:00:00.0000, -3.548970519624615E+08, 2.119404289194956E+08, -5.013697602475569E+06,
2461148.500000000, A.D. 2026-Apr-18 00:00:00.0000, -3.602883397637855E+08, 2.037637058524762E+08, -4.824293706255093E+06,
2461155.500000000, A.D. 2026-Apr-25 00:00:00.0000, -3.654330200298017E+08, 1.954476455804068E+08, -4.631584354689777E+06,
2461162.500000000, A.D. 2026-May-02 00:00:00.0000, -3.703284698745490E+08, 1.869984177198965E+08, -4.435713041618712E+06,
2461169.500000000, A.D. 2026-May-09 00:00:00.0000, -3.749721611778204E+08, 1.784221907301407E+08, -4.236823287610054E+06,
2461176.500000000, A.D. 2026-May-16 00:00:00.0000, -3.793616571949805E+08, 1.697251338374487E+08, -4.035058767754965E+06,
2461183.500000000, A.D. 2026-May-23 00:00:00.0000, -3.834946088560260E+08, 1.609134200411755E+08, -3.830563412610024E+06,
2461190.500000000, A.D. 2026-May-30 00:00:00.0000, -3.873687528281700E+08, 1.519932305149830E+08, -3.623481265418448E+06,
2461197.500000000, A.D. 2026-Jun-06 00:00:00.0000, -3.909819116556320E+08, 1.429707571256471E+08, -3.413956333996713E+06,
2461204.500000000, A.D. 2026-Jun-13 00:00:00.0000, -3.943319923036872E+08, 1.338522032635097E+08, -3.202132756790444E+06,
2461211.500000000, A.D. 2026-Jun-20 00:00:00.0000, -3.974169836014262E+08, 1.246437859012655E+08, -2.988154997461945E+06,
2461218.500000000, A.D. 2026-Jun-27 00:00:00.0000, -4.002349542832662E+08, 1.153517385323708E+08, -2.772167940343894E+06,
2461225.500000000, A.D. 2026-Jul-04 00:00:00.0000, -4.027840516347063E+08, 1.059823142107136E+08, -2.554316950830773E+06,
2461232.500000000, A.D. 2026-Jul-11 00:00:00.0000, -4.050625004919134E+08, 9.654178855885610E+07, -2.334747935305476E+06,
2461239.500000000, A.D. 2026-Jul-18 00:00:00.0000, -4.070686025039607E+08, 8.703646276977800E+07, -2.113607407283328E+06,
2461246.500000000, A.D. 2026-Jul-25 00:00:00.0000, -4.088007356340743E+08, 7.747266660323337E+07, -1.891042561914094E+06,
2461253.500000000, A.D. 2026-Aug-01 00:00:00.0000, -4.102573538527797E+08, 6.785676132623127E+07, -1.667201367216013E+06,
2461260.500000000, A.D. 2026-Aug-08 00:00:00.0000, -4.114369868097284E+08, 5.819514255893789E+07, -1.442232694652475E+06,
2461267.500000000, A.D. 2026-Aug-15 00:00:00.0000, -4.123382390715209E+08, 4.849424347333363E+07, -1.216286490235502E+06,
2461274.500000000, A.D. 2026-Aug-22 00:00:00.0000, -4.129597896897609E+08, 3.876053956237658E+07, -9.895138164724614E+05,
2461281.500000000, A.D. 2026-Aug-29 00:00:00.0000, -4.133003943941078E+08, 2.900055360291095E+07, -7.620666674718652E+05,
2461288.500000000, A.D. 2026-Sep-05 00:00:00.0000, -4.133588882850329E+08, 1.922085794162737E+07, -5.340979874042207E+05,
$$EOE